ATLAS CENTAUR R/B       
1 06155U 72065B   26003.28460509  .00002579  00000+0  35560-3 0  9996
2 06155  35.0031 328.9896 0033931 181.3067 178.7548 14.77480324831586
SL-8 R/B                
1 08459U 75112B   26003.60337967  .00000504  00000+0  17454-3 0  9996
2 08459  74.0608 138.6429 0016723 247.9736 111.9642 14.38162986622511
SL-3 R/B                
1 10114U 77057B   26003.60768498  .00018330  00000+0  40924-3 0  9998
2 10114  97.5688 172.7979 0007912 149.9293 210.2410 15.43566727658285
SEASAT 1                
1 10967U 78064A   26003.61118268  .00000785  00000+0  25808-3 0  9997
2 10967 108.0141 348.9233 0001229 262.1830  97.9176 14.46091068497107
SL-14 R/B               
1 11267U 79011B   26003.52048522  .00001241  00000+0  12036-3 0  9996
2 11267  82.5245 158.3870 0014704 276.0737  83.8807 14.91805518519062
SL-8 R/B                
1 11574U 79089B   26003.61602482  .00000376  00000+0  12188-3 0  9999
2 11574  74.0673 211.4904 0014991  37.1669 323.0522 14.42298641426723
SL-14 R/B               
1 11672U 80005B   26003.49076023  .00001202  00000+0  11930-3 0  9993
2 11672  82.5138   9.0676 0016447  26.2519 333.9529 14.90825094466777
SL-8 R/B                
1 12139U 81003B   26003.44450802  .00034982  00000+0  92340-3 0  9992
2 12139  82.9364 350.2302 0275331  45.8339 316.5164 15.07903508304830
SL-3 R/B                
1 12465U 81046B   26003.52844893  .00016714  00000+0  41346-3 0  9990
2 12465  81.2316   7.8606 0017988 243.4784 116.4613 15.40154373428394
SL-3 R/B                
1 12904U 81103B   26003.57612370  .00009251  00000+0  42053-3 0  9994
2 12904  81.1609 289.7764 0013589 139.0948 221.1305 15.20547308963339
SL-3 R/B                
1 13068U 82013B   26003.61348134  .00006159  00000+0  27209-3 0  9996
2 13068  81.1732 237.0036 0023696  40.7656 319.5342 15.21311789394457
SL-3 R/B                
1 13154U 82039B   26003.57917599  .00004996  00000+0  30570-3 0  9994
2 13154  81.1705 290.9685 0029609 178.1978 181.9360 15.09681940371815
