CCSDS_OMM_VERS = 2.0
CREATION_DATE  = 
ORIGINATOR     = 

OBJECT_NAME    = ATLAS CENTAUR R/B
OBJECT_ID      = 1972-065B
CENTER_NAME    = EARTH
REF_FRAME      = TEME
TIME_SYSTEM    = UTC
MEAN_ELEMENT_THEORY = SGP/SGP4

EPOCH          = 2026-01-03T06:49:49.879776
MEAN_MOTION    = 14.77480324
ECCENTRICITY   = .0033931
INCLINATION    = 35.0031
RA_OF_ASC_NODE = 328.9896
ARG_OF_PERICENTER = 181.3067
MEAN_ANOMALY   = 178.7548

EPHEMERIS_TYPE = 0
CLASSIFICATION_TYPE = U
NORAD_CAT_ID   = 6155
ELEMENT_SET_NO = 999
REV_AT_EPOCH   = 83158
BSTAR          = .3556E-3
MEAN_MOTION_DOT = .2579E-4
MEAN_MOTION_DDOT = 0

CCSDS_OMM_VERS = 2.0
CREATION_DATE  = 
ORIGINATOR     = 

OBJECT_NAME    = SL-8 R/B
OBJECT_ID      = 1975-112B
CENTER_NAME    = EARTH
REF_FRAME      = TEME
TIME_SYSTEM    = UTC
MEAN_ELEMENT_THEORY = SGP/SGP4

EPOCH          = 2026-01-03T14:28:52.003488
MEAN_MOTION    = 14.38162986
ECCENTRICITY   = .00167232
INCLINATION    = 74.0608
RA_OF_ASC_NODE = 138.6429
ARG_OF_PERICENTER = 247.9736
MEAN_ANOMALY   = 111.9642

EPHEMERIS_TYPE = 0
CLASSIFICATION_TYPE = U
NORAD_CAT_ID   = 8459
ELEMENT_SET_NO = 999
REV_AT_EPOCH   = 62251
BSTAR          = .17453562E-3
MEAN_MOTION_DOT = .504E-5
MEAN_MOTION_DDOT = 0

CCSDS_OMM_VERS = 2.0
CREATION_DATE  = 
ORIGINATOR     = 

OBJECT_NAME    = SL-3 R/B
OBJECT_ID      = 1977-057B
CENTER_NAME    = EARTH
REF_FRAME      = TEME
TIME_SYSTEM    = UTC
MEAN_ELEMENT_THEORY = SGP/SGP4

EPOCH          = 2026-01-03T14:35:03.982272
MEAN_MOTION    = 15.43566727
ECCENTRICITY   = .00079127
INCLINATION    = 97.5688
RA_OF_ASC_NODE = 172.7979
ARG_OF_PERICENTER = 149.9293
MEAN_ANOMALY   = 210.2410

EPHEMERIS_TYPE = 0
CLASSIFICATION_TYPE = U
NORAD_CAT_ID   = 10114
ELEMENT_SET_NO = 999
REV_AT_EPOCH   = 65828
BSTAR          = .40924276E-3
MEAN_MOTION_DOT = .1833E-3
MEAN_MOTION_DDOT = 0

CCSDS_OMM_VERS = 2.0
CREATION_DATE  = 
ORIGINATOR     = 

OBJECT_NAME    = SEASAT 1
OBJECT_ID      = 1978-064A
CENTER_NAME    = EARTH
REF_FRAME      = TEME
TIME_SYSTEM    = UTC
MEAN_ELEMENT_THEORY = SGP/SGP4

EPOCH          = 2026-01-03T14:40:06.183552
MEAN_MOTION    = 14.46091068
ECCENTRICITY   = .00012298
INCLINATION    = 108.0141
RA_OF_ASC_NODE = 348.9233
ARG_OF_PERICENTER = 262.1830
MEAN_ANOMALY   = 97.9176

EPHEMERIS_TYPE = 0
CLASSIFICATION_TYPE = U
NORAD_CAT_ID   = 10967
ELEMENT_SET_NO = 999
REV_AT_EPOCH   = 49710
BSTAR          = .25807749E-3
MEAN_MOTION_DOT = .785E-5
MEAN_MOTION_DDOT = 0

CCSDS_OMM_VERS = 2.0
CREATION_DATE  = 
ORIGINATOR     = 

OBJECT_NAME    = SL-14 R/B
OBJECT_ID      = 1979-011B
CENTER_NAME    = EARTH
REF_FRAME      = TEME
TIME_SYSTEM    = UTC
MEAN_ELEMENT_THEORY = SGP/SGP4

EPOCH          = 2026-01-03T12:29:29.923008
MEAN_MOTION    = 14.91805518
ECCENTRICITY   = .00147048
INCLINATION    = 82.5245
RA_OF_ASC_NODE = 158.3870
ARG_OF_PERICENTER = 276.0737
MEAN_ANOMALY   = 83.8807

EPHEMERIS_TYPE = 0
CLASSIFICATION_TYPE = U
NORAD_CAT_ID   = 11267
ELEMENT_SET_NO = 999
REV_AT_EPOCH   = 51906
BSTAR          = .12035757E-3
MEAN_MOTION_DOT = .1241E-4
MEAN_MOTION_DDOT = 0

CCSDS_OMM_VERS = 2.0
CREATION_DATE  = 
ORIGINATOR     = 

OBJECT_NAME    = SL-8 R/B
OBJECT_ID      = 1979-089B
CENTER_NAME    = EARTH
REF_FRAME      = TEME
TIME_SYSTEM    = UTC
MEAN_ELEMENT_THEORY = SGP/SGP4

EPOCH          = 2026-01-03T14:47:04.544448
MEAN_MOTION    = 14.42298641
ECCENTRICITY   = .00149919
INCLINATION    = 74.0673
RA_OF_ASC_NODE = 211.4904
ARG_OF_PERICENTER = 37.1669
MEAN_ANOMALY   = 323.0522

EPHEMERIS_TYPE = 0
CLASSIFICATION_TYPE = U
NORAD_CAT_ID   = 11574
ELEMENT_SET_NO = 999
REV_AT_EPOCH   = 42672
BSTAR          = .12187907E-3
MEAN_MOTION_DOT = .376E-5
MEAN_MOTION_DDOT = 0

CCSDS_OMM_VERS = 2.0
CREATION_DATE  = 
ORIGINATOR     = 

OBJECT_NAME    = SL-14 R/B
OBJECT_ID      = 1980-005B
CENTER_NAME    = EARTH
REF_FRAME      = TEME
TIME_SYSTEM    = UTC
MEAN_ELEMENT_THEORY = SGP/SGP4

EPOCH          = 2026-01-03T11:46:41.683872
MEAN_MOTION    = 14.90825094
ECCENTRICITY   = .00164479
INCLINATION    = 82.5138
RA_OF_ASC_NODE = 9.0676
ARG_OF_PERICENTER = 26.2519
MEAN_ANOMALY   = 333.9529

EPHEMERIS_TYPE = 0
CLASSIFICATION_TYPE = U
NORAD_CAT_ID   = 11672
ELEMENT_SET_NO = 999
REV_AT_EPOCH   = 46677
BSTAR          = .11930092E-3
MEAN_MOTION_DOT = .1202E-4
MEAN_MOTION_DDOT = 0

CCSDS_OMM_VERS = 2.0
CREATION_DATE  = 
ORIGINATOR     = 

OBJECT_NAME    = SL-8 R/B
OBJECT_ID      = 1981-003B
CENTER_NAME    = EARTH
REF_FRAME      = TEME
TIME_SYSTEM    = UTC
MEAN_ELEMENT_THEORY = SGP/SGP4

EPOCH          = 2026-01-03T10:40:05.492928
MEAN_MOTION    = 15.07903508
ECCENTRICITY   = .02753315
INCLINATION    = 82.9364
RA_OF_ASC_NODE = 350.2302
ARG_OF_PERICENTER = 45.8339
MEAN_ANOMALY   = 316.5164

EPHEMERIS_TYPE = 0
CLASSIFICATION_TYPE = U
NORAD_CAT_ID   = 12139
ELEMENT_SET_NO = 999
REV_AT_EPOCH   = 30483
BSTAR          = .92339841E-3
MEAN_MOTION_DOT = .34982E-3
MEAN_MOTION_DDOT = 0

CCSDS_OMM_VERS = 2.0
CREATION_DATE  = 
ORIGINATOR     = 

OBJECT_NAME    = SL-3 R/B
OBJECT_ID      = 1981-046B
CENTER_NAME    = EARTH
REF_FRAME      = TEME
TIME_SYSTEM    = UTC
MEAN_ELEMENT_THEORY = SGP/SGP4

EPOCH          = 2026-01-03T12:40:57.987552
MEAN_MOTION    = 15.40154373
ECCENTRICITY   = .00179881
INCLINATION    = 81.2316
RA_OF_ASC_NODE = 7.8606
ARG_OF_PERICENTER = 243.4784
MEAN_ANOMALY   = 116.4613

EPHEMERIS_TYPE = 0
CLASSIFICATION_TYPE = U
NORAD_CAT_ID   = 12465
ELEMENT_SET_NO = 999
REV_AT_EPOCH   = 42839
BSTAR          = .41346257E-3
MEAN_MOTION_DOT = .16714E-3
MEAN_MOTION_DDOT = 0

CCSDS_OMM_VERS = 2.0
CREATION_DATE  = 
ORIGINATOR     = 

OBJECT_NAME    = SL-3 R/B
OBJECT_ID      = 1981-103B
CENTER_NAME    = EARTH
REF_FRAME      = TEME
TIME_SYSTEM    = UTC
MEAN_ELEMENT_THEORY = SGP/SGP4

EPOCH          = 2026-01-03T13:49:37.087680
MEAN_MOTION    = 15.20547308
ECCENTRICITY   = .00135895
INCLINATION    = 81.1609
RA_OF_ASC_NODE = 289.7764
ARG_OF_PERICENTER = 139.0948
MEAN_ANOMALY   = 221.1305

EPHEMERIS_TYPE = 0
CLASSIFICATION_TYPE = U
NORAD_CAT_ID   = 12904
ELEMENT_SET_NO = 999
REV_AT_EPOCH   = 96333
BSTAR          = .42053228E-3
MEAN_MOTION_DOT = .9251E-4
MEAN_MOTION_DDOT = 0

CCSDS_OMM_VERS = 2.0
CREATION_DATE  = 
ORIGINATOR     = 

OBJECT_NAME    = SL-3 R/B
OBJECT_ID      = 1982-013B
CENTER_NAME    = EARTH
REF_FRAME      = TEME
TIME_SYSTEM    = UTC
MEAN_ELEMENT_THEORY = SGP/SGP4

EPOCH          = 2026-01-03T14:43:24.787776
MEAN_MOTION    = 15.21311789
ECCENTRICITY   = .00236963
INCLINATION    = 81.1732
RA_OF_ASC_NODE = 237.0036
ARG_OF_PERICENTER = 40.7656
MEAN_ANOMALY   = 319.5342

EPHEMERIS_TYPE = 0
CLASSIFICATION_TYPE = U
NORAD_CAT_ID   = 13068
ELEMENT_SET_NO = 999
REV_AT_EPOCH   = 39445
BSTAR          = .27208833E-3
MEAN_MOTION_DOT = .6159E-4
MEAN_MOTION_DDOT = 0

CCSDS_OMM_VERS = 2.0
CREATION_DATE  = 
ORIGINATOR     = 

OBJECT_NAME    = SL-3 R/B
OBJECT_ID      = 1982-039B
CENTER_NAME    = EARTH
REF_FRAME      = TEME
TIME_SYSTEM    = UTC
MEAN_ELEMENT_THEORY = SGP/SGP4

EPOCH          = 2026-01-03T13:54:00.805536
MEAN_MOTION    = 15.09681940
ECCENTRICITY   = .00296093
INCLINATION    = 81.1705
RA_OF_ASC_NODE = 290.9685
ARG_OF_PERICENTER = 178.1978
MEAN_ANOMALY   = 181.9360

EPHEMERIS_TYPE = 0
CLASSIFICATION_TYPE = U
NORAD_CAT_ID   = 13154
ELEMENT_SET_NO = 999
REV_AT_EPOCH   = 37181
BSTAR          = .30570122E-3
MEAN_MOTION_DOT = .4996E-4
MEAN_MOTION_DDOT = 0

